STARLINK-34110
1 63811U 25092H   26061.16668981  .00206996  00000+0  41747-2 0  9993
2 63811  42.9988 210.6873 0016361 330.6505  61.9521 15.44908765  5612
